CCSDS_OMM_VERS = 2.0
CREATION_DATE  = 
ORIGINATOR     = 

OBJECT_NAME    = STARLINK-35802
OBJECT_ID      = 2025-247AA
CENTER_NAME    = EARTH
REF_FRAME      = TEME
TIME_SYSTEM    = UTC
MEAN_ELEMENT_THEORY = SGP/SGP4

EPOCH          = 2025-11-30T04:00:03.998880
MEAN_MOTION    = 15.39577217
ECCENTRICITY   = .0001631
INCLINATION    = 53.1585
RA_OF_ASC_NODE = 296.3226
ARG_OF_PERICENTER = 78.2392
MEAN_ANOMALY   = 130.8897

EPHEMERIS_TYPE = 0
CLASSIFICATION_TYPE = U
NORAD_CAT_ID   = 66289
ELEMENT_SET_NO = 999
REV_AT_EPOCH   = 554
BSTAR          = .64631E-3
MEAN_MOTION_DOT = .25502E-3
MEAN_MOTION_DDOT = 0

CCSDS_OMM_VERS = 2.0
CREATION_DATE  = 
ORIGINATOR     = 

OBJECT_NAME    = STARLINK-35799
OBJECT_ID      = 2025-247AB
CENTER_NAME    = EARTH
REF_FRAME      = TEME
TIME_SYSTEM    = UTC
MEAN_ELEMENT_THEORY = SGP/SGP4

EPOCH          = 2025-11-30T04:00:03.998880
MEAN_MOTION    = 15.39583060
ECCENTRICITY   = .0001816
INCLINATION    = 53.1586
RA_OF_ASC_NODE = 296.3190
ARG_OF_PERICENTER = 83.8413
MEAN_ANOMALY   = 127.1289

EPHEMERIS_TYPE = 0
CLASSIFICATION_TYPE = U
NORAD_CAT_ID   = 66290
ELEMENT_SET_NO = 999
REV_AT_EPOCH   = 591
BSTAR          = .73266E-3
MEAN_MOTION_DOT = .28982E-3
MEAN_MOTION_DDOT = 0

CCSDS_OMM_VERS = 2.0
CREATION_DATE  = 
ORIGINATOR     = 

OBJECT_NAME    = STARLINK-35800
OBJECT_ID      = 2025-247AC
CENTER_NAME    = EARTH
REF_FRAME      = TEME
TIME_SYSTEM    = UTC
MEAN_ELEMENT_THEORY = SGP/SGP4

EPOCH          = 2025-11-30T04:00:03.998880
MEAN_MOTION    = 15.39581744
ECCENTRICITY   = .0001566
INCLINATION    = 53.1592
RA_OF_ASC_NODE = 296.2661
ARG_OF_PERICENTER = 89.3278
MEAN_ANOMALY   = 147.3888

EPHEMERIS_TYPE = 0
CLASSIFICATION_TYPE = U
NORAD_CAT_ID   = 66291
ELEMENT_SET_NO = 999
REV_AT_EPOCH   = 591
BSTAR          = .84358E-3
MEAN_MOTION_DOT = .33449E-3
MEAN_MOTION_DDOT = 0

CCSDS_OMM_VERS = 2.0
CREATION_DATE  = 
ORIGINATOR     = 

OBJECT_NAME    = STARLINK-35798
OBJECT_ID      = 2025-247AD
CENTER_NAME    = EARTH
REF_FRAME      = TEME
TIME_SYSTEM    = UTC
MEAN_ELEMENT_THEORY = SGP/SGP4

EPOCH          = 2025-11-30T04:00:03.998880
MEAN_MOTION    = 15.39573458
ECCENTRICITY   = .0001554
INCLINATION    = 53.1591
RA_OF_ASC_NODE = 296.2703
ARG_OF_PERICENTER = 81.5122
MEAN_ANOMALY   = 153.3621

EPHEMERIS_TYPE = 0
CLASSIFICATION_TYPE = U
NORAD_CAT_ID   = 66292
ELEMENT_SET_NO = 999
REV_AT_EPOCH   = 560
BSTAR          = .80684E-3
MEAN_MOTION_DOT = .31959E-3
MEAN_MOTION_DDOT = 0

CCSDS_OMM_VERS = 2.0
CREATION_DATE  = 
ORIGINATOR     = 

OBJECT_NAME    = LVM3 R/B
OBJECT_ID      = 2025-249A
CENTER_NAME    = EARTH
REF_FRAME      = TEME
TIME_SYSTEM    = UTC
MEAN_ELEMENT_THEORY = SGP/SGP4

EPOCH          = 2025-11-30T01:39:41.510880
MEAN_MOTION    = 3.14154353
ECCENTRICITY   = .6669483
INCLINATION    = 21.3469
RA_OF_ASC_NODE = 144.7332
ARG_OF_PERICENTER = 206.7231
MEAN_ANOMALY   = 92.3964

EPHEMERIS_TYPE = 0
CLASSIFICATION_TYPE = U
NORAD_CAT_ID   = 66310
ELEMENT_SET_NO = 999
REV_AT_EPOCH   = 88
BSTAR          = .13035E-2
MEAN_MOTION_DOT = .47337E-3
MEAN_MOTION_DDOT = .2763E-6

CCSDS_OMM_VERS = 2.0
CREATION_DATE  = 
ORIGINATOR     = 

OBJECT_NAME    = CMS-03 (GSAT-7R)
OBJECT_ID      = 2025-249B
CENTER_NAME    = EARTH
REF_FRAME      = TEME
TIME_SYSTEM    = UTC
MEAN_ELEMENT_THEORY = SGP/SGP4

EPOCH          = 2025-11-30T02:18:13.200768
MEAN_MOTION    = 1.00269478
ECCENTRICITY   = .0004169
INCLINATION    = 0.1732
RA_OF_ASC_NODE = 271.8860
ARG_OF_PERICENTER = 196.1147
MEAN_ANOMALY   = 89.2891

EPHEMERIS_TYPE = 0
CLASSIFICATION_TYPE = U
NORAD_CAT_ID   = 66311
ELEMENT_SET_NO = 999
REV_AT_EPOCH   = 35
BSTAR          = 0
MEAN_MOTION_DOT = -.236E-5
MEAN_MOTION_DDOT = 0

CCSDS_OMM_VERS = 2.0
CREATION_DATE  = 
ORIGINATOR     = 

OBJECT_NAME    = YAOGAN-46
OBJECT_ID      = 2025-250A
CENTER_NAME    = EARTH
REF_FRAME      = TEME
TIME_SYSTEM    = UTC
MEAN_ELEMENT_THEORY = SGP/SGP4

EPOCH          = 2025-11-19T17:03:07.460064
MEAN_MOTION    = 5.35115933
ECCENTRICITY   = .00492424
INCLINATION    = 20.0323
RA_OF_ASC_NODE = 106.9378
ARG_OF_PERICENTER = 131.7872
MEAN_ANOMALY   = 228.6447

EPHEMERIS_TYPE = 0
CLASSIFICATION_TYPE = U
NORAD_CAT_ID   = 66313
ELEMENT_SET_NO = 999
REV_AT_EPOCH   = 96
BSTAR          = 0
MEAN_MOTION_DOT = -.9E-7
MEAN_MOTION_DDOT = 0

CCSDS_OMM_VERS = 2.0
CREATION_DATE  = 
ORIGINATOR     = 

OBJECT_NAME    = SENTINEL-1D
OBJECT_ID      = 2025-251A
CENTER_NAME    = EARTH
REF_FRAME      = TEME
TIME_SYSTEM    = UTC
MEAN_ELEMENT_THEORY = SGP/SGP4

EPOCH          = 2025-11-25T22:17:03.828192
MEAN_MOTION    = 14.59751375
ECCENTRICITY   = .0001477
INCLINATION    = 98.1939
RA_OF_ASC_NODE = 335.1735
ARG_OF_PERICENTER = 179.8573
MEAN_ANOMALY   = 180.2628

EPHEMERIS_TYPE = 0
CLASSIFICATION_TYPE = U
NORAD_CAT_ID   = 66315
ELEMENT_SET_NO = 999
REV_AT_EPOCH   = 308
BSTAR          = .52376371E-4
MEAN_MOTION_DOT = .204E-5
MEAN_MOTION_DDOT = 0

CCSDS_OMM_VERS = 2.0
CREATION_DATE  = 
ORIGINATOR     = 

OBJECT_NAME    = QPS-SAR-14 (YACHIHOKO-I)
OBJECT_ID      = 2025-252A
CENTER_NAME    = EARTH
REF_FRAME      = TEME
TIME_SYSTEM    = UTC
MEAN_ELEMENT_THEORY = SGP/SGP4

EPOCH          = 2025-11-29T19:08:42.897408
MEAN_MOTION    = 14.97485851
ECCENTRICITY   = .0007088
INCLINATION    = 42.0029
RA_OF_ASC_NODE = 146.3290
ARG_OF_PERICENTER = 59.2401
MEAN_ANOMALY   = 300.9120

EPHEMERIS_TYPE = 0
CLASSIFICATION_TYPE = U
NORAD_CAT_ID   = 66316
ELEMENT_SET_NO = 999
REV_AT_EPOCH   = 359
BSTAR          = .45372E-3
MEAN_MOTION_DOT = .5199E-4
MEAN_MOTION_DDOT = 0

CCSDS_OMM_VERS = 2.0
CREATION_DATE  = 
ORIGINATOR     = 

OBJECT_NAME    = ELECTRON R/B
OBJECT_ID      = 2025-252B
CENTER_NAME    = EARTH
REF_FRAME      = TEME
TIME_SYSTEM    = UTC
MEAN_ELEMENT_THEORY = SGP/SGP4

EPOCH          = 2025-11-29T21:07:58.211040
MEAN_MOTION    = 15.94243293
ECCENTRICITY   = .0124669
INCLINATION    = 41.9889
RA_OF_ASC_NODE = 130.1303
ARG_OF_PERICENTER = 46.1701
MEAN_ANOMALY   = 314.9386

EPHEMERIS_TYPE = 0
CLASSIFICATION_TYPE = U
NORAD_CAT_ID   = 66317
ELEMENT_SET_NO = 999
REV_AT_EPOCH   = 378
BSTAR          = .19143E-2
MEAN_MOTION_DOT = .1669799E-1
MEAN_MOTION_DDOT = .7911E-5

CCSDS_OMM_VERS = 2.0
CREATION_DATE  = 
ORIGINATOR     = 

OBJECT_NAME    = ELECTRON KICK STAGE R/B
OBJECT_ID      = 2025-252C
CENTER_NAME    = EARTH
REF_FRAME      = TEME
TIME_SYSTEM    = UTC
MEAN_ELEMENT_THEORY = SGP/SGP4

EPOCH          = 2025-11-29T21:10:35.967936
MEAN_MOTION    = 16.27204594
ECCENTRICITY   = .0048366
INCLINATION    = 41.9678
RA_OF_ASC_NODE = 128.3366
ARG_OF_PERICENTER = 209.2072
MEAN_ANOMALY   = 150.6092

EPHEMERIS_TYPE = 0
CLASSIFICATION_TYPE = U
NORAD_CAT_ID   = 66318
ELEMENT_SET_NO = 999
REV_AT_EPOCH   = 380
BSTAR          = .14467E-2
MEAN_MOTION_DOT = .7609678E-1
MEAN_MOTION_DDOT = .78949E-5

CCSDS_OMM_VERS = 2.0
CREATION_DATE  = 
ORIGINATOR     = 

OBJECT_NAME    = STARLINK-35442
OBJECT_ID      = 2025-253A
CENTER_NAME    = EARTH
REF_FRAME      = TEME
TIME_SYSTEM    = UTC
MEAN_ELEMENT_THEORY = SGP/SGP4

EPOCH          = 2025-11-30T12:00:04.000320
MEAN_MOTION    = 15.40991700
ECCENTRICITY   = .0000857
INCLINATION    = 42.9999
RA_OF_ASC_NODE = 56.4077
ARG_OF_PERICENTER = 274.5981
MEAN_ANOMALY   = 17.4965

EPHEMERIS_TYPE = 0
CLASSIFICATION_TYPE = U
NORAD_CAT_ID   = 66319
ELEMENT_SET_NO = 999
REV_AT_EPOCH   = 505
BSTAR          = -.14625E-1
MEAN_MOTION_DOT = -.572902E-2
MEAN_MOTION_DDOT = 0

